{
"type": "FeatureCollection",
"name": "AOI",
"crs": { "type": "name", "properties": { "name": "urn:ogc:def:crs:EPSG::28353" } },
"features": [
{ "type": "Feature", "properties": { "aoi": "Coffin Bay AOI" }, "geometry": { "type": "Polygon", "coordinates": [ [ [ 508528.758620691485703, 6200383.2413793168962 ], [ 564459.868965518660843, 6200312.710344833321869 ], [ 565094.648275864310563, 6153409.572413799352944 ], [ 509022.475862069986761, 6153127.448275869712234 ], [ 508528.758620691485703, 6200383.2413793168962 ] ] ] } }
]
}
