{
"type": "FeatureCollection",
"name": "rizin",
"crs": { "type": "name", "properties": { "name": "urn:ogc:def:crs:OGC:1.3:CRS84" } },
"features": [
{ "type": "Feature", "properties": { "boundary_name": "Rizin", "source_note": "Uploaded AOI.shp; CRS assigned as GDA94 / MGA zone 53 (EPSG:28353) based on Coffin Bay coordinate domain." }, "geometry": { "type": "Polygon", "coordinates": [ [ [ 135.092723368800222, -34.337811385274883 ], [ 135.700780515763597, -34.336477260985674 ], [ 135.711270777425341, -34.759382817775219 ], [ 135.0985923605148, -34.763964421046559 ], [ 135.092723368800222, -34.337811385274883 ] ] ] } }
]
}
